{
    "links": {
        "self": "http://www.neowsapp.com/rest/v1/neo/3788151?api_key=iIulBulltgU6a56xZRHN4H3l9WmuAYTsLGpBGhQ2"
    },
    "id": "3788151",
    "neo_reference_id": "3788151",
    "name": "(2017 UM43)",
    "designation": "2017 UM43",
    "nasa_jpl_url": "http://ssd.jpl.nasa.gov/sbdb.cgi?sstr=3788151",
    "absolute_magnitude_h": 24.2,
    "estimated_diameter": {
        "kilometers": {
            "estimated_diameter_min": 0.0384197891,
            "estimated_diameter_max": 0.0859092601
        },
        "meters": {
            "estimated_diameter_min": 38.4197891064,
            "estimated_diameter_max": 85.9092601232
        },
        "miles": {
            "estimated_diameter_min": 0.0238729428,
            "estimated_diameter_max": 0.0533815229
        },
        "feet": {
            "estimated_diameter_min": 126.0491808919,
            "estimated_diameter_max": 281.8545369825
        }
    },
    "is_potentially_hazardous_asteroid": false,
    "close_approach_data": [
        {
            "close_approach_date": "2017-05-30",
            "close_approach_date_full": "2017-May-30 14:48",
            "epoch_date_close_approach": 1496155680000,
            "relative_velocity": {
                "kilometers_per_second": "14.3694116865",
                "kilometers_per_hour": "51729.8820714176",
                "miles_per_hour": "32142.9370015428"
            },
            "miss_distance": {
                "astronomical": "0.4381299738",
                "lunar": "170.4325598082",
                "kilometers": "65543310.863635806",
                "miles": "40726724.8473378828"
            },
            "orbiting_body": "Earth"
        },
        {
            "close_approach_date": "2017-10-25",
            "close_approach_date_full": "2017-Oct-25 23:44",
            "epoch_date_close_approach": 1508975040000,
            "relative_velocity": {
                "kilometers_per_second": "14.6890946368",
                "kilometers_per_hour": "52880.7406923443",
                "miles_per_hour": "32858.0357929736"
            },
            "miss_distance": {
                "astronomical": "0.1123892045",
                "lunar": "43.7194005505",
                "kilometers": "16813185.604194415",
                "miles": "10447229.089996327"
            },
            "orbiting_body": "Earth"
        },
        {
            "close_approach_date": "2020-05-04",
            "close_approach_date_full": "2020-May-04 17:08",
            "epoch_date_close_approach": 1588612080000,
            "relative_velocity": {
                "kilometers_per_second": "14.0428645008",
                "kilometers_per_hour": "50554.3122029664",
                "miles_per_hour": "31412.4836018932"
            },
            "miss_distance": {
                "astronomical": "0.4931478991",
                "lunar": "191.8345327499",
                "kilometers": "73773875.300334917",
                "miles": "45840960.4380471746"
            },
            "orbiting_body": "Earth"
        }
    ],
    "orbital_data": {
        "orbit_id": "3",
        "orbit_determination_date": "2017-11-21 06:21:39",
        "first_observation_date": "2017-10-28",
        "last_observation_date": "2017-11-20",
        "data_arc_in_days": 23,
        "observations_used": 18,
        "orbit_uncertainty": "8",
        "minimum_orbit_intersection": ".104261",
        "jupiter_tisserand_invariant": "4.756",
        "epoch_osculation": "2458056.5",
        "eccentricity": ".230281031514376",
        "semi_major_axis": "1.342099950071908",
        "inclination": "27.16103645077598",
        "ascending_node_longitude": "216.9997735012122",
        "orbital_period": "567.9050324610319",
        "perihelion_distance": "1.033039789173957",
        "perihelion_argument": "131.0769570151065",
        "aphelion_distance": "1.65116011096986",
        "perihelion_time": "2458006.065258685675",
        "mean_anomaly": "31.97102655434358",
        "mean_motion": ".6339088041532759",
        "equinox": "J2000",
        "orbit_class": {
            "orbit_class_type": "AMO",
            "orbit_class_description": "Near-Earth asteroid orbits similar to that of 1221 Amor",
            "orbit_class_range": "1.017 AU < q (perihelion) < 1.3 AU"
        }
    },
    "is_sentry_object": false
}